LEMUR-2-XUENITERENCE    
1 42772U 17036H   17350.22559721  .00001614  00000-0  76716-4 0  9991
2 42772  97.4281  47.5836 0014485 352.3915   7.7099 15.20555886 26698
LEMUR-2-LUCYBRYCE       
1 42773U 17036J   17350.40947970  .00001691  00000-0  79779-4 0  9996
2 42773  97.4288  47.7990 0014147 351.2058   8.8928 15.20767290 26721
LEMUR-2-KUNGFOO         
1 42774U 17036K   17350.61261271  .00001655  00000-0  78469-4 0  9998
2 42774  97.4282  47.9888 0014201 350.7677   9.3295 15.20627480 26747
AALTO-1                 
1 42775U 17036L   17350.61727303  .00000997  00000-0  48831-4 0  9990
2 42775  97.4277  47.9755 0013931 350.0461  10.0496 15.20405000 26753
URSA MAIOR              
1 42776U 17036M   17350.61200763  .00001047  00000-0  51043-4 0  9993
2 42776  97.4281  47.9894 0013798 350.3296   9.7672 15.20465224 26758
COMPASS 2               
1 42777U 17036N   17350.23506693  .00001789  00000-0  83444-4 0  9996
2 42777  97.4297  47.7529 0012853 356.2590   3.8547 15.21089419 26690
LEMUR-2-LYNSEY-SYMO     
1 42779U 17036Q   17350.60221181  .00001758  00000-0  81381-4 0  9999
2 42779  97.4291  48.1604 0012500   1.6605 358.4670 15.21383824 26741
LEMUR-2-LISASAURUS      
1 42780U 17036R   17350.60659513  .00001725  00000-0  80176-4 0  9990
2 42780  97.4282  48.1469 0012503   1.8055 358.3223 15.21265383 26759
LEMUR-2-SAM-AMELIA      
1 42781U 17036S   17350.86044785  .00001951  00000-0  89872-4 0  9991
2 42781  97.4286  48.4180 0012299   1.3857 358.7411 15.21419679 26789
LEMUR-2-MCPEAKE         
1 42782U 17036T   17350.59377205  .00001850  00000-0  85319-4 0  9998
2 42782  97.4291  48.1681 0012197   1.8881 358.2399 15.21451962 26745
DIAMOND RED             
1 42783U 17036U   17350.61054278  .00000497  00000-0  25459-4 0  9999
2 42783  97.4279  48.1373 0012487   3.7126 356.4200 15.21066381 26754
PEGASUS                 
1 42784U 17036V   17350.80068258  .00001350  00000-0  63560-4 0  9998
2 42784  97.4280  48.3445 0012445   3.3346 356.7971 15.21188520 26784
DIAMOND GREEN           
1 42785U 17036W   17350.80703293  .00001197  00000-0  56923-4 0  9998
2 42785  97.4281  48.3385 0012404   3.6526 356.4798 15.21072153 26774
DIAMOND BLUE            
1 42786U 17036X   17350.60846264  .00001192  00000-0  56725-4 0  9998
2 42786  97.4281  48.1444 0012249   4.7806 355.3544 15.21053001 26823
NUDTSAT                 
1 42787U 17036Y   17350.84123990  .00001903  00000-0  87423-4 0  9998
2 42787  97.4285  48.4444 0011982   3.6693 356.4629 15.21562064 26635
SUCHAI                  
1 42788U 17036Z   17350.58803229  .00001575  00000-0  73236-4 0  9992
2 42788  97.4280  48.1682 0012103   4.3765 355.7574 15.21380303 26822
SKCUBE                  
1 42789U 17036AA  17350.58517523  .00001479  00000-0  68968-4 0  9991
2 42789  97.4279  48.1698 0011924   4.4751 355.6589 15.21379462 26744
VZLUSAT-1               
1 42790U 17036AB  17350.43932716  .00001787  00000-0  82180-4 0  9996
2 42790  97.4283  48.0558 0011581   5.7675 354.3693 15.21595404 26729
ROBUSTA-1B              
1 42792U 17036AD  17350.37301760  .00001452  00000-0  67521-4 0  9991
2 42792  97.4278  47.9888 0011536   6.6812 353.4575 15.21511793 26720
CICERO 6                
1 42793U 17036AE  17350.22710110  .00000941  00000-0  44822-4 0  9990
2 42793  97.4274  47.8741 0010741   9.0165 351.1262 15.21528819 26779
D-SAT                   
1 42794U 17036AF  17350.61311343  .00000263  00000-0  28466-4 0  9992
2 42794  97.6197  46.9043 0127731 168.9096 191.4987 14.90737250 26525
TOKI                    
1 42820U 98067MU  17350.87638751  .00012910  00000-0  15756-3 0  9997
2 42820  51.6358 203.4651 0003783 180.6530 179.4459 15.60834209 25320
GHANASAT-1              
1 42821U 98067MV  17350.82371731  .00011721  00000-0  14481-3 0  9998
2 42821  51.6359 203.8635 0003680 183.7174 176.3793 15.60618915 25299
MAZAALAI (NUMSAT-1)     
1 42822U 98067MW  17350.82232455  .00012359  00000-0  15193-3 0  9997
2 42822  51.6361 203.8555 0003672 185.1811 174.9145 15.60691692 25297
BRAC ONNESHA            
1 42823U 98067MX  17350.63199757  .00011873  00000-0  14614-3 0  9991
2 42823  51.6366 204.8407 0006065 211.5807 148.4823 15.60694462 25284
NIGERIAEDUSAT-1         
1 42824U 98067MY  17350.83173246  .00011800  00000-0  14582-3 0  9993
2 42824  51.6371 203.9293 0005911 212.4557 147.6074 15.60597804 25286
LEMUR-2-GREENBERG       
1 42837U 17042N   17350.55225194  .00000832  00000-0  88940-4 0  9993
2 42837  97.6085 254.7370 0014724  85.3606 274.9294 14.91247317 23130
LEMUR-2-ANDIS           
1 42838U 17042P   17350.55010838  .00000846  00000-0  90273-4 0  9998
2 42838  97.6084 254.7391 0014833  85.2384 275.0528 14.91268002 23132
LEMUR-2-MONSON          
1 42839U 17042Q   17350.27397476  .00000506  00000-0  56157-4 0  9990
2 42839  97.6085 254.4890 0014623  85.7433 274.5456 14.91293959 23090
LEMUR-2-FURIAUS         
1 42840U 17042R   17350.80450454  .00000707  00000-0  76123-4 0  9995
2 42840  97.6084 255.0134 0014648  84.1460 276.1428 14.91403326 23165
LEMUR-2-PETERG          
1 42841U 17042S   17350.79081827  .00000516  00000-0  56810-4 0  9997
2 42841  97.6085 255.0328 0014318  82.8299 277.4547 14.91534203 23177
LEMUR-2-DEMBITZ         
1 42842U 17042T   17350.78855446  .00000535  00000-0  58640-4 0  9997
2 42842  97.6083 255.0329 0014314  83.2718 277.0129 14.91555283 23177
LEMUR-2-ZACHARY         
1 42845U 17042W   17350.43130743  .00000796  00000-0  84268-4 0  9992
2 42845  97.6032 254.6360 0014634  88.5116 271.7780 14.91750816 23116
FLOCK 2K-03             
1 42850U 17042AB  17350.76584381  .00007306  00000-0  21650-3 0  9994
2 42850  96.9949 251.5491 0013074  58.5249 301.7272 15.35043240 23635
FLOCK 2K-04             
1 42851U 17042AC  17350.44320602  .00004469  00000-0  13331-3 0  9998
2 42851  96.9951 251.2406 0012777  61.2896 298.9630 15.35045748 23584
FLOCK 2K-01             
1 42852U 17042AD  17350.31101270  .00003932  00000-0  11755-3 0  9995
2 42852  96.9946 251.1153 0012674  60.4906 299.7601 15.35047381 23566
FLOCK 2K-02             
1 42853U 17042AE  17350.57605900  .00002005  00000-0  64383-4 0  9999
2 42853  96.9957 251.2264 0013550  60.0557 300.2030 15.33310219 23593
FLOCK 2K-47             
1 42854U 17042AF  17350.50353282  .00002024  00000-0  61555-4 0  9995
2 42854  96.9944 251.3026 0012529  57.9807 302.2653 15.35047661 23598
FLOCK 2K-48             
1 42855U 17042AG  17350.69768590  .00003638  00000-0  10893-3 0  9998
2 42855  96.9948 251.4955 0012524  57.7383 302.5073 15.35052157 23626
FLOCK 2K-45             
1 42856U 17042AH  17350.69579641  .00002190  00000-0  66403-4 0  9997
2 42856  96.9944 251.4937 0012581  56.5776 303.6670 15.35057709 23622
FLOCK 2K-24             
1 42857U 17042AJ  17350.63016304  .00001889  00000-0  57800-4 0  9999
2 42857  96.9947 251.4322 0012561  55.2961 304.9464 15.34942725 23618
FLOCK 2K-46             
1 42858U 17042AK  17350.62890678  .00004026  00000-0  12041-3 0  9996
2 42858  96.9952 251.4416 0012644  56.9329 303.3128 15.35022821 23614
FLOCK 2K-23             
1 42859U 17042AL  17350.62708890  .00003988  00000-0  11924-3 0  9996
2 42859  96.9952 251.4410 0012634  57.6174 302.6291 15.35038830 23614
FLOCK 2K-21             
1 42860U 17042AM  17350.62574117  .00003923  00000-0  11735-3 0  9990
2 42860  96.9952 251.4417 0012629  57.0899 303.1559 15.35029645 23612
FLOCK 2K-22             
1 42861U 17042AN  17350.77126407  .00005736  00000-0  17106-3 0  9994
2 42861  96.9954 251.5523 0012543  55.1138 305.1283 15.34938629 23632
FLOCK 2K-07             
1 42862U 17042AP  17350.62392035  .00004134  00000-0  12348-3 0  9995
2 42862  96.9955 251.4469 0012850  57.5619 302.6866 15.35043301 23626
FLOCK 2K-08             
1 42863U 17042AQ  17350.62093649  .00003970  00000-0  11875-3 0  9996
2 42863  96.9951 251.4442 0012873  58.0557 302.1937 15.35025040 23619
FLOCK 2K-05             
1 42864U 17042AR  17350.62235710  .00002050  00000-0  62393-4 0  9994
2 42864  96.9954 251.4483 0012808  56.7860 303.4610 15.35005995 23617
FLOCK 2K-40             
1 42865U 17042AS  17350.61937662  .00004012  00000-0  11997-3 0  9992
2 42865  96.9955 251.4528 0012864  58.0011 302.2482 15.35028895 23612
FLOCK 2K-39             
1 42866U 17042AT  17350.61767254  .00003627  00000-0  10863-3 0  9993
2 42866  96.9951 251.4509 0012962  57.3714 302.8779 15.35038295 23619
FLOCK 2K-37             
1 42867U 17042AU  17350.61606292  .00003832  00000-0  11459-3 0  9998
2 42867  96.9952 251.4551 0013037  57.5224 302.7279 15.35049141 23616
FLOCK 2K-38             
1 42868U 17042AV  17350.67809639  .00002167  00000-0  65733-4 0  9990
2 42868  96.9949 251.5202 0013066  56.2411 304.0076 15.35052468 23620
FLOCK 2K-31             
1 42869U 17042AW  17350.54601259  .00001932  00000-0  58813-4 0  9995
2 42869  96.9947 251.3963 0013131  55.3406 304.9074 15.35064902 23609
FLOCK 2K-32             
1 42870U 17042AX  17350.54434842  .00002146  00000-0  65123-4 0  9999
2 42870  96.9946 251.3985 0013115  55.6259 304.6224 15.35056587 23609
FLOCK 2K-29             
1 42871U 17042AY  17350.47778735  .00002084  00000-0  63258-4 0  9992
2 42871  96.9948 251.3415 0013244  55.3116 304.9374 15.35070647 23592
FLOCK 2K-30             
1 42872U 17042AZ  17350.47588457  .00001974  00000-0  59928-4 0  9999
2 42872  96.9947 251.3411 0013216  56.4144 303.8360 15.35128511 23586
FLOCK 2K-44             
1 42873U 17042BA  17350.73529247  .00002423  00000-0  73126-4 0  9997
2 42873  96.9949 251.5932 0013870  45.2450 314.9920 15.35094270 23636
FLOCK 2K-43             
1 42874U 17042BB  17350.45618607  .00001976  00000-0  62323-4 0  9995
2 42874  96.9953 251.2267 0014451  47.7124 312.5342 15.33884387 23581
FLOCK 2K-41             
1 42875U 17042BC  17350.73270365  .00005968  00000-0  17589-3 0  9990
2 42875  96.9951 251.5930 0014078  46.9753 313.2669 15.35274767 23637
